[{"COMMENT":"GENERATED VIA SPACETRACK.ORG API","ORIGINATOR":"18 SPCS","NORAD_CAT_ID":"43477","OBJECT_NAME":"GRACE-FO 2","OBJECT_TYPE":"PAYLOAD","CLASSIFICATION_TYPE":"U","INTLDES":"18047B","EPOCH":"2023-11-05 12:54:44","EPOCH_MICROSECONDS":"629920","MEAN_MOTION":"15.27243842","ECCENTRICITY":"0.0012257","INCLINATION":"88.9829","RA_OF_ASC_NODE":"329.9557","ARG_OF_PERICENTER":"201.5426","MEAN_ANOMALY":"158.5309","EPHEMERIS_TYPE":"0","ELEMENT_SET_NO":"999","REV_AT_EPOCH":"30356","BSTAR":"0.00020218","MEAN_MOTION_DOT":"0.00005433","MEAN_MOTION_DDOT":"0","FILE":"4072138","TLE_LINE0":"0 GRACE-FO 2","TLE_LINE1":"1 43477U 18047B   23309.53801655  .00005433  00000-0  20218-3 0  9996","TLE_LINE2":"2 43477  88.9829 329.9557 0012257 201.5426 158.5309 15.27243842303564","OBJECT_ID":"2018-047B","OBJECT_NUMBER":"43477","SEMIMAJOR_AXIS":"6862.193","PERIOD":"94.287","APOGEE":"492.469","PERIGEE":"475.647","DECAYED":"0"},{"COMMENT":"GENERATED VIA SPACETRACK.ORG API","ORIGINATOR":"18 SPCS","NORAD_CAT_ID":"43477","OBJECT_NAME":"GRACE-FO 2","OBJECT_TYPE":"PAYLOAD","CLASSIFICATION_TYPE":"U","INTLDES":"18047B","EPOCH":"2023-11-05 22:20:51","EPOCH_MICROSECONDS":"821376","MEAN_MOTION":"15.27254446","ECCENTRICITY":"0.0012326","INCLINATION":"88.983","RA_OF_ASC_NODE":"329.902","ARG_OF_PERICENTER":"199.9087","MEAN_ANOMALY":"160.1684","EPHEMERIS_TYPE":"0","ELEMENT_SET_NO":"999","REV_AT_EPOCH":"30362","BSTAR":"0.0003124","MEAN_MOTION_DOT":"0.00008383","MEAN_MOTION_DDOT":"0","FILE":"4072675","TLE_LINE0":"0 GRACE-FO 2","TLE_LINE1":"1 43477U 18047B   23309.93115534  .00008383  00000-0  31240-3 0  9998","TLE_LINE2":"2 43477  88.9830 329.9020 0012326 199.9087 160.1684 15.27254446303625","OBJECT_ID":"2018-047B","OBJECT_NUMBER":"43477","SEMIMAJOR_AXIS":"6862.161","PERIOD":"94.287","APOGEE":"492.484","PERIGEE":"475.568","DECAYED":"0"},{"COMMENT":"GENERATED VIA SPACETRACK.ORG API","ORIGINATOR":"18 SPCS","NORAD_CAT_ID":"43477","OBJECT_NAME":"GRACE-FO 2","OBJECT_TYPE":"PAYLOAD","CLASSIFICATION_TYPE":"U","INTLDES":"18047B","EPOCH":"2023-11-06 14:04:23","EPOCH_MICROSECONDS":"545632","MEAN_MOTION":"15.27263161","ECCENTRICITY":"0.0012449","INCLINATION":"88.9831","RA_OF_ASC_NODE":"329.8123","ARG_OF_PERICENTER":"197.1094","MEAN_ANOMALY":"162.9738","EPHEMERIS_TYPE":"0","ELEMENT_SET_NO":"999","REV_AT_EPOCH":"30372","BSTAR":"0.00029485","MEAN_MOTION_DOT":"0.00007916","MEAN_MOTION_DDOT":"0","FILE":"4074285","TLE_LINE0":"0 GRACE-FO 2","TLE_LINE1":"1 43477U 18047B   23310.58638363  .00007916  00000-0  29485-3 0  9990","TLE_LINE2":"2 43477  88.9831 329.8123 0012449 197.1094 162.9738 15.27263161303728","OBJECT_ID":"2018-047B","OBJECT_NUMBER":"43477","SEMIMAJOR_AXIS":"6862.135","PERIOD":"94.286","APOGEE":"492.543","PERIGEE":"475.457","DECAYED":"0"},{"COMMENT":"GENERATED VIA SPACETRACK.ORG API","ORIGINATOR":"18 SPCS","NORAD_CAT_ID":"43477","OBJECT_NAME":"GRACE-FO 2","OBJECT_TYPE":"PAYLOAD","CLASSIFICATION_TYPE":"U","INTLDES":"18047B","EPOCH":"2023-11-06 18:47:26","EPOCH_MICROSECONDS":"984544","MEAN_MOTION":"15.27265359","ECCENTRICITY":"0.0012484","INCLINATION":"88.983","RA_OF_ASC_NODE":"329.7854","ARG_OF_PERICENTER":"196.2805","MEAN_ANOMALY":"163.8045","EPHEMERIS_TYPE":"0","ELEMENT_SET_NO":"999","REV_AT_EPOCH":"30375","BSTAR":"0.00027512","MEAN_MOTION_DOT":"0.00007388","MEAN_MOTION_DDOT":"0","FILE":"4074418","TLE_LINE0":"0 GRACE-FO 2","TLE_LINE1":"1 43477U 18047B   23310.78295121  .00007388  00000-0  27512-3 0  9995","TLE_LINE2":"2 43477  88.9830 329.7854 0012484 196.2805 163.8045 15.27265359303751","OBJECT_ID":"2018-047B","OBJECT_NUMBER":"43477","SEMIMAJOR_AXIS":"6862.128","PERIOD":"94.286","APOGEE":"492.560","PERIGEE":"475.427","DECAYED":"0"},{"COMMENT":"GENERATED VIA SPACETRACK.ORG API","ORIGINATOR":"18 SPCS","NORAD_CAT_ID":"43477","OBJECT_NAME":"GRACE-FO 2","OBJECT_TYPE":"PAYLOAD","CLASSIFICATION_TYPE":"U","INTLDES":"18047B","EPOCH":"2023-11-06 21:56:09","EPOCH_MICROSECONDS":"292416","MEAN_MOTION":"15.2726577","ECCENTRICITY":"0.0012512","INCLINATION":"88.983","RA_OF_ASC_NODE":"329.7675","ARG_OF_PERICENTER":"195.763","MEAN_ANOMALY":"164.3232","EPHEMERIS_TYPE":"0","ELEMENT_SET_NO":"999","REV_AT_EPOCH":"30377","BSTAR":"0.00024319","MEAN_MOTION_DOT":"0.00006534","MEAN_MOTION_DDOT":"0","FILE":"4074934","TLE_LINE0":"0 GRACE-FO 2","TLE_LINE1":"1 43477U 18047B   23310.91399644  .00006534  00000-0  24319-3 0  9999","TLE_LINE2":"2 43477  88.9830 329.7675 0012512 195.7630 164.3232 15.27265770303777","OBJECT_ID":"2018-047B","OBJECT_NUMBER":"43477","SEMIMAJOR_AXIS":"6862.127","PERIOD":"94.286","APOGEE":"492.578","PERIGEE":"475.406","DECAYED":"0"},{"COMMENT":"GENERATED VIA SPACETRACK.ORG API","ORIGINATOR":"18 SPCS","NORAD_CAT_ID":"43477","OBJECT_NAME":"GRACE-FO 2","OBJECT_TYPE":"PAYLOAD","CLASSIFICATION_TYPE":"U","INTLDES":"18047B","EPOCH":"2023-11-07 13:39:40","EPOCH_MICROSECONDS":"513824","MEAN_MOTION":"15.27272572","ECCENTRICITY":"0.0012645","INCLINATION":"88.9828","RA_OF_ASC_NODE":"329.6779","ARG_OF_PERICENTER":"193.1301","MEAN_ANOMALY":"166.9621","EPHEMERIS_TYPE":"0","ELEMENT_SET_NO":"999","REV_AT_EPOCH":"30387","BSTAR":"0.00019949","MEAN_MOTION_DOT":"0.00005366","MEAN_MOTION_DDOT":"0","FILE":"4076432","TLE_LINE0":"0 GRACE-FO 2","TLE_LINE1":"1 43477U 18047B   23311.56921891  .00005366  00000-0  19949-3 0  9991","TLE_LINE2":"2 43477  88.9828 329.6779 0012645 193.1301 166.9621 15.27272572303871","OBJECT_ID":"2018-047B","OBJECT_NUMBER":"43477","SEMIMAJOR_AXIS":"6862.107","PERIOD":"94.286","APOGEE":"492.649","PERIGEE":"475.295","DECAYED":"0"},{"COMMENT":"GENERATED VIA SPACETRACK.ORG API","ORIGINATOR":"18 SPCS","NORAD_CAT_ID":"43477","OBJECT_NAME":"GRACE-FO 2","OBJECT_TYPE":"PAYLOAD","CLASSIFICATION_TYPE":"U","INTLDES":"18047B","EPOCH":"2023-11-08 03:48:50","EPOCH_MICROSECONDS":"399424","MEAN_MOTION":"15.27279343","ECCENTRICITY":"0.0012764","INCLINATION":"88.9827","RA_OF_ASC_NODE":"329.5973","ARG_OF_PERICENTER":"190.7417","MEAN_ANOMALY":"169.3562","EPHEMERIS_TYPE":"0","ELEMENT_SET_NO":"999","REV_AT_EPOCH":"30396","BSTAR":"0.00018794","MEAN_MOTION_DOT":"0.00005059","MEAN_MOTION_DDOT":"0","FILE":"4077256","TLE_LINE0":"0 GRACE-FO 2","TLE_LINE1":"1 43477U 18047B   23312.15891666  .00005059  00000-0  18794-3 0  9999","TLE_LINE2":"2 43477  88.9827 329.5973 0012764 190.7417 169.3562 15.27279343303962","OBJECT_ID":"2018-047B","OBJECT_NUMBER":"43477","SEMIMAJOR_AXIS":"6862.087","PERIOD":"94.285","APOGEE":"492.710","PERIGEE":"475.193","DECAYED":"0"},{"COMMENT":"GENERATED VIA SPACETRACK.ORG API","ORIGINATOR":"18 SPCS","NORAD_CAT_ID":"43477","OBJECT_NAME":"GRACE-FO 2","OBJECT_TYPE":"PAYLOAD","CLASSIFICATION_TYPE":"U","INTLDES":"18047B","EPOCH":"2023-11-08 13:14:56","EPOCH_MICROSECONDS":"908320","MEAN_MOTION":"15.27283136","ECCENTRICITY":"0.0012848","INCLINATION":"88.9826","RA_OF_ASC_NODE":"329.5435","ARG_OF_PERICENTER":"189.1745","MEAN_ANOMALY":"170.9272","EPHEMERIS_TYPE":"0","ELEMENT_SET_NO":"999","REV_AT_EPOCH":"30402","BSTAR":"0.00018736","MEAN_MOTION_DOT":"0.00005044","MEAN_MOTION_DDOT":"0","FILE":"4078352","TLE_LINE0":"0 GRACE-FO 2","TLE_LINE1":"1 43477U 18047B   23312.55204755  .00005044  00000-0  18736-3 0  9990","TLE_LINE2":"2 43477  88.9826 329.5435 0012848 189.1745 170.9272 15.27283136304022","OBJECT_ID":"2018-047B","OBJECT_NUMBER":"43477","SEMIMAJOR_AXIS":"6862.075","PERIOD":"94.285","APOGEE":"492.757","PERIGEE":"475.124","DECAYED":"0"},{"COMMENT":"GENERATED VIA SPACETRACK.ORG API","ORIGINATOR":"18 SPCS","NORAD_CAT_ID":"43477","OBJECT_NAME":"GRACE-FO 2","OBJECT_TYPE":"PAYLOAD","CLASSIFICATION_TYPE":"U","INTLDES":"18047B","EPOCH":"2023-11-08 21:06:42","EPOCH_MICROSECONDS":"277536","MEAN_MOTION":"15.27286014","ECCENTRICITY":"0.0012902","INCLINATION":"88.9825","RA_OF_ASC_NODE":"329.4987","ARG_OF_PERICENTER":"187.852","MEAN_ANOMALY":"172.2529","EPHEMERIS_TYPE":"0","ELEMENT_SET_NO":"999","REV_AT_EPOCH":"30407","BSTAR":"0.00018144","MEAN_MOTION_DOT":"0.00004886","MEAN_MOTION_DDOT":"0","FILE":"4078917","TLE_LINE0":"0 GRACE-FO 2","TLE_LINE1":"1 43477U 18047B   23312.87965599  .00004886  00000-0  18144-3 0  9991","TLE_LINE2":"2 43477  88.9825 329.4987 0012902 187.8520 172.2529 15.27286014304072","OBJECT_ID":"2018-047B","OBJECT_NUMBER":"43477","SEMIMAJOR_AXIS":"6862.067","PERIOD":"94.285","APOGEE":"492.785","PERIGEE":"475.078","DECAYED":"0"},{"COMMENT":"GENERATED VIA SPACETRACK.ORG API","ORIGINATOR":"18 SPCS","NORAD_CAT_ID":"43477","OBJECT_NAME":"GRACE-FO 2","OBJECT_TYPE":"PAYLOAD","CLASSIFICATION_TYPE":"U","INTLDES":"18047B","EPOCH":"2023-11-09 11:15:51","EPOCH_MICROSECONDS":"763104","MEAN_MOTION":"15.27291947","ECCENTRICITY":"0.0013034","INCLINATION":"88.9823","RA_OF_ASC_NODE":"329.418","ARG_OF_PERICENTER":"185.5173","MEAN_ANOMALY":"174.5935","EPHEMERIS_TYPE":"0","ELEMENT_SET_NO":"999","REV_AT_EPOCH":"30416","BSTAR":"0.00018072","MEAN_MOTION_DOT":"0.00004868","MEAN_MOTION_DDOT":"0","FILE":"4079619","TLE_LINE0":"0 GRACE-FO 2","TLE_LINE1":"1 43477U 18047B   23313.46934911  .00004868  00000-0  18072-3 0  9991","TLE_LINE2":"2 43477  88.9823 329.4180 0013034 185.5173 174.5935 15.27291947304168","OBJECT_ID":"2018-047B","OBJECT_NUMBER":"43477","SEMIMAJOR_AXIS":"6862.049","PERIOD":"94.285","APOGEE":"492.858","PERIGEE":"474.970","DECAYED":"0"}]